OBJECT_NAME,OBJECT_ID,EPOCH,MEAN_MOTION,ECCENTRICITY,INCLINATION,RA_OF_ASC_NODE,ARG_OF_PERICENTER,MEAN_ANOMALY,EPHEMERIS_TYPE,CLASSIFICATION_TYPE,NORAD_CAT_ID,ELEMENT_SET_NO,REV_AT_EPOCH,BSTAR,MEAN_MOTION_DOT,MEAN_MOTION_DDOT
GONETS-M 14,2019-096A,2026-05-18T19:51:18.224064,12.42868846,.0012336,82.5208,102.8417,213.6589,146.3708,0,U,44905,999,29003,-.22625E-3,-.21E-6,0
GONETS-M 15,2019-096B,2026-05-18T20:33:41.330304,12.42870471,.0013974,82.5227,103.2802,238.6938,121.2774,0,U,44906,999,29000,.53044E-3,.83E-6,0
GONETS-M 16,2019-096C,2026-05-18T21:12:10.406592,12.42891098,.0009752,82.5174,102.2299,285.8255,74.1749,0,U,44907,999,28999,.40911E-3,.66E-6,0
RS-44 & BREEZE-KM R/B,2019-096E,2026-05-18T20:14:32.186976,12.79748245,.021686,82.5232,359.2076,212.7600,145.9900,0,U,44909,999,29859,.55898E-4,.24E-6,0
JILIN-1 KUANFU 01,2020-003A,2026-05-18T19:25:06.602016,15.10542277,.0010859,97.5035,213.3405,50.8460,309.3733,0,U,45016,999,35089,.14348E-3,.2305E-4,0
XINGYUN-2 01,2020-028A,2026-05-18T19:40:01.090848,15.11670278,.0007718,97.4862,131.8066,315.0728,44.9877,0,U,45602,999,33040,.58657E-4,.934E-5,0
XINGYUN-2 02,2020-028B,2026-05-18T20:37:09.511104,15.11406007,.0011678,97.5074,145.3687,22.4343,337.7396,0,U,45603,999,33040,.62722E-4,.996E-5,0
HAIYANG-1D,2020-036A,2026-05-18T19:27:07.671744,14.34162005,.0001671,98.4552,81.1312,216.5834,143.5237,0,U,45721,999,31076,.22161E-4,.19E-6,0
M2 PATHFINDER,2020-037E,2026-05-18T06:04:11.498304,15.04533933,.000993,97.8161,329.1504,251.4495,108.5652,0,U,45727,999,32099,.89307E-4,.1188E-4,0
GAOFEN DUOMO (GFDM),2020-042A,2026-05-18T20:53:34.539360,14.76835225,.0011323,97.7763,199.8205,160.3389,199.8260,0,U,45856,999,31668,.96657E-4,.63E-5,0
ZIYUAN 3-03 (ZY 3-03),2020-051A,2026-05-18T20:24:15.495840,15.21507527,.0006906,97.2846,207.5213,61.9218,298.2715,0,U,45939,999,32288,.10015E-3,.2187E-4,0
NEMO-HD,2020-061F,2026-05-18T20:11:07.964160,15.43951334,.0002585,97.1933,201.1012,116.2079,243.9435,0,U,46277,999,31745,.16109E-3,.7244E-4,0
NAPA-1,2020-061BA,2026-05-18T21:31:26.436864,15.64161602,.0001819,97.2484,212.1990,140.6736,219.4655,0,U,46320,999,31715,.42683E-3,.40504E-3,0
JILIN-1 GAOFEN 3E,2020-065D,2026-05-18T21:04:25.243680,15.60174103,.0010001,97.2278,190.8820,260.0894,99.9234,0,U,46457,999,31518,.46635E-3,.38009E-3,0
JILIN-1 GAOFEN 3F,2020-065E,2026-05-18T20:33:27.597024,15.57921901,.0011644,97.2233,188.3245,248.9944,111.0067,0,U,46458,999,31513,.4425E-3,.33127E-3,0
JILIN-1 GAOFEN 3G,2020-065F,2026-05-18T20:46:31.041984,15.66120557,.0012659,97.2306,194.6984,153.3528,206.8386,0,U,46459,999,31534,.50749E-3,.52356E-3,0
JILIN-1 GAOFEN 3H,2020-065G,2026-05-18T20:18:05.317632,15.63574395,.0008816,97.2251,191.1617,103.1995,257.0249,0,U,46460,999,31529,.47458E-3,.44121E-3,0
HAIYANG-2C,2020-066A,2026-05-18T19:32:17.953152,13.83371300,.0009986,65.9975,288.4154,239.7666,120.2414,0,U,46469,999,28543,-.13086E-3,-.225E-5,0
HJ-2A,2020-067A,2026-05-18T19:44:30.043680,14.76568924,.00038,97.8831,217.8864,24.6150,335.5240,0,U,46478,999,30392,.59612E-5,-.8E-7,0
HJ-2B,2020-067B,2026-05-18T18:59:13.956864,14.76516902,.0001258,97.8894,218.8555,77.2546,282.8804,0,U,46479,999,30392,.11258E-3,.735E-5,0
GONETS-M 17,2020-068A,2026-05-18T21:47:46.453920,12.42871694,.0023379,82.5009,5.7201,98.1916,262.1817,0,U,46486,999,25552,-.33231E-3,-.36E-6,0
GONETS-M 18,2020-068B,2026-05-18T20:55:26.263200,12.42871058,.0020707,82.4962,4.8718,94.7205,265.6240,0,U,46487,999,25550,-.28377E-3,-.29E-6,0
GONETS-M 19,2020-068C,2026-05-18T20:20:39.907104,12.42890901,.0014308,82.4987,5.3318,108.3856,251.8781,0,U,46488,999,25560,-.42683E-3,-.49E-6,0
DEKART,2020-068H,2026-05-18T20:16:28.292160,15.36611071,.0010043,97.8748,146.0309,40.3197,319.8788,0,U,46493,999,31126,.2362E-3,.8366E-4,0
NORBI,2020-068J,2026-05-18T20:53:20.652288,15.47113561,.0006779,97.8639,152.2818,23.3000,336.8554,0,U,46494,999,31167,.31227E-3,.15749E-3,0
SALSAT,2020-068K,2026-05-18T10:40:39.957024,15.29321812,.0011188,97.8853,139.7110,54.3549,305.8730,0,U,46495,999,31081,.17157E-3,.4803E-4,0
ICEYE-X6,2020-068M,2026-05-18T20:38:10.080960,15.04347919,.0007116,98.0975,131.1353,177.6557,182.4702,0,U,46497,999,30882,.16772E-3,.2272E-4,0
NETSAT-4,2020-068U,2026-05-18T11:51:52.233984,15.42798689,.0007435,97.8611,144.3747,75.7611,284.4460,0,U,46504,999,31119,.25348E-3,.11013E-3,0
