GONETS-M 14             
1 44905U 19096A   26138.82729426 -.00000021  00000+0 -22625-3 0  9991
2 44905  82.5208 102.8417 0012336 213.6589 146.3708 12.42868846290033
GONETS-M 15             
1 44906U 19096B   26138.85672836  .00000083  00000+0  53044-3 0  9992
2 44906  82.5227 103.2802 0013974 238.6938 121.2774 12.42870471290001
GONETS-M 16             
1 44907U 19096C   26138.88345378  .00000066  00000+0  40911-3 0  9994
2 44907  82.5174 102.2299 0009752 285.8255  74.1749 12.42891098289999
RS-44 & BREEZE-KM R/B   
1 44909U 19096E   26138.84342809  .00000024  00000+0  55898-4 0  9993
2 44909  82.5232 359.2076 0216860 212.7600 145.9900 12.79748245298593
JILIN-1 KUANFU 01       
1 45016U 20003A   26138.80910419  .00002305  00000+0  14348-3 0  9995
2 45016  97.5035 213.3405 0010859  50.8460 309.3733 15.10542277350898
XINGYUN-2 01            
1 45602U 20028A   26138.81945707  .00000934  00000+0  58657-4 0  9990
2 45602  97.4862 131.8066 0007718 315.0728  44.9877 15.11670278330406
XINGYUN-2 02            
1 45603U 20028B   26138.85913786  .00000996  00000+0  62722-4 0  9993
2 45603  97.5074 145.3687 0011678  22.4343 337.7396 15.11406007330400
HAIYANG-1D              
1 45721U 20036A   26138.81050546  .00000019  00000+0  22161-4 0  9994
2 45721  98.4552  81.1312 0001671 216.5834 143.5237 14.34162005310762
M2 PATHFINDER           
1 45727U 20037E   26138.25291086  .00001188  00000+0  89307-4 0  9998
2 45727  97.8161 329.1504 0009930 251.4495 108.5652 15.04533933320990
GAOFEN DUOMO (GFDM)     
1 45856U 20042A   26138.87053865  .00000630  00000+0  96657-4 0  9993
2 45856  97.7763 199.8205 0011323 160.3389 199.8260 14.76835225316685
ZIYUAN 3-03 (ZY 3-03)   
1 45939U 20051A   26138.85017935  .00002187  00000+0  10015-3 0  9993
2 45939  97.2846 207.5213 0006906  61.9218 298.2715 15.21507527322888
NEMO-HD                 
1 46277U 20061F   26138.84106440  .00007244  00000+0  16109-3 0  9998
2 46277  97.1933 201.1012 0002585 116.2079 243.9435 15.43951334317451
NAPA-1                  
1 46320U 20061BA  26138.89683376  .00040504  00000+0  42683-3 0  9992
2 46320  97.2484 212.1990 0001819 140.6736 219.4655 15.64161602317152
JILIN-1 GAOFEN 3E       
1 46457U 20065D   26138.87806995  .00038009  00000+0  46635-3 0  9997
2 46457  97.2278 190.8820 0010001 260.0894  99.9234 15.60174103315184
JILIN-1 GAOFEN 3F       
1 46458U 20065E   26138.85656941  .00033127  00000+0  44250-3 0  9997
2 46458  97.2233 188.3245 0011644 248.9944 111.0067 15.57921901315131
JILIN-1 GAOFEN 3G       
1 46459U 20065F   26138.86563706  .00052356  00000+0  50749-3 0  9990
2 46459  97.2306 194.6984 0012659 153.3528 206.8386 15.66120557315345
JILIN-1 GAOFEN 3H       
1 46460U 20065G   26138.84589488  .00044121  00000+0  47458-3 0  9999
2 46460  97.2251 191.1617 0008816 103.1995 257.0249 15.63574395315292
HAIYANG-2C              
1 46469U 20066A   26138.81409668 -.00000225  00000+0 -13086-3 0  9996
2 46469  65.9975 288.4154 0009986 239.7666 120.2414 13.83371300285430
HJ-2A                   
1 46478U 20067A   26138.82256995 -.00000008  00000+0  59612-5 0  9996
2 46478  97.8831 217.8864 0003800  24.6150 335.5240 14.76568924303923
HJ-2B                   
1 46479U 20067B   26138.79113376  .00000735  00000+0  11258-3 0  9996
2 46479  97.8894 218.8555 0001258  77.2546 282.8804 14.76516902303928
GONETS-M 17             
1 46486U 20068A   26138.90817655 -.00000036  00000+0 -33231-3 0  9990
2 46486  82.5009   5.7201 0023379  98.1916 262.1817 12.42871694255527
GONETS-M 18             
1 46487U 20068B   26138.87183175 -.00000029  00000+0 -28377-3 0  9997
2 46487  82.4962   4.8718 0020707  94.7205 265.6240 12.42871058255503
GONETS-M 19             
1 46488U 20068C   26138.84768411 -.00000049  00000+0 -42683-3 0  9995
2 46488  82.4987   5.3318 0014308 108.3856 251.8781 12.42890901255603
DEKART                  
1 46493U 20068H   26138.84477190  .00008366  00000+0  23620-3 0  9990
2 46493  97.8748 146.0309 0010043  40.3197 319.8788 15.36611071311264
NORBI                   
1 46494U 20068J   26138.87037792  .00015749  00000+0  31227-3 0  9999
2 46494  97.8639 152.2818 0006779  23.3000 336.8554 15.47113561311671
SALSAT                  
1 46495U 20068K   26138.44490691  .00004803  00000+0  17157-3 0  9999
2 46495  97.8853 139.7110 0011188  54.3549 305.8730 15.29321812310814
ICEYE-X6                
1 46497U 20068M   26138.85983890  .00002272  00000+0  16772-3 0  9994
2 46497  98.0975 131.1353 0007116 177.6557 182.4702 15.04347919308828
NETSAT-4                
1 46504U 20068U   26138.49435456  .00011013  00000+0  25348-3 0  9995
2 46504  97.8611 144.3747 0007435  75.7611 284.4460 15.42798689311191
